ONEWEB-0620             
1 55161U 23004X   25140.59134857 -.00000852  00000+0 -24414-2 0  9994
2 55161  87.8825  99.3483 0002330  88.8939 271.2456 13.11408525114370
ONEWEB-0621             
1 55162U 23004Y   25140.38957981 -.00000075  00000+0 -24612-3 0  9991
2 55162  87.8820  99.3468 0002124  76.5411 283.5954 13.11417989114327
ONEWEB-0622             
1 55163U 23004Z   25140.39466668  .00000095  00000+0  23226-3 0  9990
2 55163  87.8822  99.3682 0002880  79.5647 280.5806 13.11419112114313
ONEWEB-0623             
1 55164U 23004AA  25140.58002614 -.00000206  00000+0 -56307-3 0  9991
2 55164  87.9059  84.0667 0002699  70.6216 289.5207 13.17648440115884
ONEWEB-0624             
1 55165U 23004AB  25140.48968290  .00000325  00000+0  86264-3 0  9997
2 55165  87.8892  68.7783 0002040  77.5581 282.5776 13.12937365116548
ONEWEB-0625             
1 55166U 23004AC  25140.79772460 -.00000023  00000+0 -92548-4 0  9994
2 55166  87.9059  84.0212 0001860  80.4811 279.6530 13.17649300115909
ONEWEB-0626             
1 55167U 23004AD  25140.55977413 -.00000109  00000+0 -31367-3 0  9990
2 55167  87.9059  84.0665 0002176  97.1132 263.0247 13.17647930115879
ONEWEB-0627             
1 55168U 23004AE  25140.54797981 -.00000160  00000+0 -44611-3 0  9993
2 55168  87.9061  84.0719 0002637  76.4995 283.6430 13.17650294115871
